start=new Date('2023-05-28T00:00:00.000Z').valueOf();
sats=[{"OBJECT_ID":"2022-097AT","PERIAPSIS":"539.126","BSTAR":"0.00002572900000","DECAY_DATE":null,"MEAN_MOTION_DDOT":"0.0000000000000","ARG_OF_PERICENTER":"81.6205","PERIOD":"95.437","GP_ID":"232635829","TIME_SYSTEM":"UTC","COUNTRY_CODE":"US","EPHEMERIS_TYPE":"0","CLASSIFICATION_TYPE":"U","OBJECT_TYPE":"PAYLOAD","RA_OF_ASC_NODE":"349.0154","INCLINATION":"53.2176","APOAPSIS":"540.350","LAUNCH_DATE":"2022-08-10","ELEMENT_SET_NO":"999","MEAN_MOTION_DOT":"0.00000122","REV_AT_EPOCH":"4527","MEAN_ANOMALY":"278.4888","FILE":"3918755","MEAN_MOTION":"15.08842449","REF_FRAME":"TEME","OBJECT_NAME":"STARLINK-4543","TLE_LINE1":"1 53429U 22097AT  23147.84818094  .00000122  00000-0  25729-4 0  9996","CENTER_NAME":"EARTH","ECCENTRICITY":"0.00008850","RCS_SIZE":"LARGE","TLE_LINE2":"2 53429  53.2176 349.0154 0000885  81.6205 278.4888 15.08842449 45276","SEMIMAJOR_AXIS":"6917.873","EPOCH":"2023-05-27T20:21:22.833216","NORAD_CAT_ID":"53429","MEAN_ELEMENT_THEORY":"SGP4","SITE":"AFETR"},{"RA_OF_ASC_NODE":"348.6731","INCLINATION":"53.2179","REV_AT_EPOCH":"4526","MEAN_ANOMALY":"280.9913","APOAPSIS":"540.363","LAUNCH_DATE":"2022-08-10","MEAN_MOTION_DOT":"-0.00000620","ELEMENT_SET_NO":"999","CLASSIFICATION_TYPE":"U","EPHEMERIS_TYPE":"0","OBJECT_TYPE":"PAYLOAD","ARG_OF_PERICENTER":"79.1187","PERIOD":"95.437","GP_ID":"232635580","COUNTRY_CODE":"US","TIME_SYSTEM":"UTC","PERIAPSIS":"539.043","OBJECT_ID":"2022-097AU","DECAY_DATE":null,"MEAN_MOTION_DDOT":"0.0000000000000","BSTAR":"-0.00002085100000","SITE":"AFETR","SEMIMAJOR_AXIS":"6917.838","EPOCH":"2023-05-27T21:46:08.783040","NORAD_CAT_ID":"53430","TLE_LINE2":"2 53430  53.2179 348.6731 0000954  79.1187 280.9913 15.08853968 45269","MEAN_ELEMENT_THEORY":"SGP4","RCS_SIZE":"LARGE","REF_FRAME":"TEME","FILE":"3918755","MEAN_MOTION":"15.08853968","TLE_LINE1":"1 53430U 22097AU  23147.90704610 -.00000620  00000-0 -20851-4 0  9999","CENTER_NAME":"EARTH","ECCENTRICITY":"0.00009540","OBJECT_NAME":"STARLINK-4538"},{"CENTER_NAME":"EARTH","ECCENTRICITY":"0.00009110","TLE_LINE1":"1 53431U 22097AV  23147.82204822  .00001094  00000-0  83238-4 0  9993","OBJECT_NAME":"STARLINK-4548","REF_FRAME":"TEME","MEAN_MOTION":"15.10484188","FILE":"3918755","RCS_SIZE":"LARGE","MEAN_ELEMENT_THEORY":"SGP4","NORAD_CAT_ID":"53431","EPOCH":"2023-05-27T19:43:44.966208","SEMIMAJOR_AXIS":"6912.859","TLE_LINE2":"2 53431  53.2176 348.8615 0000911  84.2687 275.8410 15.10484188 45278","SITE":"AFETR","MEAN_MOTION_DDOT":"0.0000000000000","DECAY_DATE":null,"BSTAR":"0.00008323800000","PERIAPSIS":"534.095","OBJECT_ID":"2022-097AV","COUNTRY_CODE":"US","TIME_SYSTEM":"UTC","GP_ID":"232634828","PERIOD":"95.334","ARG_OF_PERICENTER":"84.2687","OBJECT_TYPE":"PAYLOAD","CLASSIFICATION_TYPE":"U","EPHEMERIS_TYPE":"0","MEAN_ANOMALY":"275.8410","REV_AT_EPOCH":"4527","MEAN_MOTION_DOT":"0.00001094","LAUNCH_DATE":"2022-08-10","ELEMENT_SET_NO":"999","APOAPSIS":"535.354","RA_OF_ASC_NODE":"348.8615","INCLINATION":"53.2176"},{"TIME_SYSTEM":"UTC","COUNTRY_CODE":"US","GP_ID":"232635078","ARG_OF_PERICENTER":"85.3432","PERIOD":"95.437","BSTAR":"0.00044309000000","MEAN_MOTION_DDOT":"0.0000000000000","DECAY_DATE":null,"OBJECT_ID":"2022-097AW","PERIAPSIS":"539.098","MEAN_MOTION_DOT":"0.00006772","LAUNCH_DATE":"2022-08-10","ELEMENT_SET_NO":"999","APOAPSIS":"540.361","MEAN_ANOMALY":"274.7664","REV_AT_EPOCH":"4528","RA_OF_ASC_NODE":"348.5109","INCLINATION":"53.2159","OBJECT_TYPE":"PAYLOAD","EPHEMERIS_TYPE":"0","CLASSIFICATION_TYPE":"U","RCS_SIZE":"LARGE","OBJECT_NAME":"STARLINK-4557","ECCENTRICITY":"0.00009130","CENTER_NAME":"EARTH","TLE_LINE1":"1 53432U 22097AW  23147.88125968  .00006772  00000-0  44309-3 0  9996","MEAN_MOTION":"15.08845171","FILE":"3918755","REF_FRAME":"TEME","SITE":"AFETR","MEAN_ELEMENT_THEORY":"SGP4","TLE_LINE2":"2 53432  53.2159 348.5109 0000913  85.3432 274.7664 15.08845171 45287","NORAD_CAT_ID":"53432","SEMIMAJOR_AXIS":"6917.865","EPOCH":"2023-05-27T21:09:00.836352"},{"BSTAR":"0.00009757700000","MEAN_MOTION_DDOT":"0.0000000000000","DECAY_DATE":null,"OBJECT_ID":"2022-097AX","PERIAPSIS":"539.013","TIME_SYSTEM":"UTC","COUNTRY_CODE":"US","GP_ID":"232635330","PERIOD":"95.437","ARG_OF_PERICENTER":"94.8364","OBJECT_TYPE":"PAYLOAD","EPHEMERIS_TYPE":"0","CLASSIFICATION_TYPE":"U","MEAN_MOTION_DOT":"0.00001266","LAUNCH_DATE":"2022-08-10","ELEMENT_SET_NO":"999","APOAPSIS":"540.463","MEAN_ANOMALY":"265.2748","REV_AT_EPOCH":"4525","RA_OF_ASC_NODE":"348.9452","INCLINATION":"53.2177","OBJECT_NAME":"STARLINK-4549","ECCENTRICITY":"0.00010480","CENTER_NAME":"EARTH","TLE_LINE1":"1 53433U 22097AX  23147.83712748  .00001266  00000-0  97577-4 0  9999","MEAN_MOTION":"15.08842376","FILE":"3918755","REF_FRAME":"TEME","RCS_SIZE":"LARGE","MEAN_ELEMENT_THEORY":"SGP4","TLE_LINE2":"2 53433  53.2177 348.9452 0001048  94.8364 265.2748 15.08842376 45251","NORAD_CAT_ID":"53433","EPOCH":"2023-05-27T20:05:27.814272","SEMIMAJOR_AXIS":"6917.873","SITE":"AFETR"},{"EPHEMERIS_TYPE":"0","CLASSIFICATION_TYPE":"U","OBJECT_TYPE":"PAYLOAD","RA_OF_ASC_NODE":"348.4896","INCLINATION":"53.2182","APOAPSIS":"540.478","MEAN_MOTION_DOT":"0.00001225","LAUNCH_DATE":"2022-08-10","ELEMENT_SET_NO":"999","REV_AT_EPOCH":"4529","MEAN_ANOMALY":"283.3546","OBJECT_ID":"2022-097AY","PERIAPSIS":"539.006","BSTAR":"0.00009505400000","DECAY_DATE":null,"MEAN_MOTION_DDOT":"0.0000000000000","PERIOD":"95.437","ARG_OF_PERICENTER":"76.7564","GP_ID":"232636080","TIME_SYSTEM":"UTC","COUNTRY_CODE":"US","TLE_LINE2":"2 53434  53.2182 348.4896 0001064  76.7564 283.3546 15.08841095 45292","EPOCH":"2023-05-27T21:03:42.486048","SEMIMAJOR_AXIS":"6917.877","NORAD_CAT_ID":"53434","MEAN_ELEMENT_THEORY":"SGP4","SITE":"AFETR","MEAN_MOTION":"15.08841095","FILE":"3918755","REF_FRAME":"TEME","OBJECT_NAME":"STARLINK-4498","TLE_LINE1":"1 53434U 22097AY  23147.87757507  .00001225  00000-0  95054-4 0  9999","CENTER_NAME":"EARTH","ECCENTRICITY":"0.00010640","RCS_SIZE":"LARGE"},{"EPHEMERIS_TYPE":"0","CLASSIFICATION_TYPE":"U","OBJECT_TYPE":"PAYLOAD","RA_OF_ASC_NODE":"348.8286","INCLINATION":"53.2170","LAUNCH_DATE":"2022-08-10","ELEMENT_SET_NO":"999","MEAN_MOTION_DOT":"0.00001081","APOAPSIS":"540.379","MEAN_ANOMALY":"266.9500","REV_AT_EPOCH":"4525","OBJECT_ID":"2022-097AZ","PERIAPSIS":"539.094","BSTAR":"0.00008596000000","MEAN_MOTION_DDOT":"0.0000000000000","DECAY_DATE":null,"GP_ID":"232634329","ARG_OF_PERICENTER":"93.1598","PERIOD":"95.437","TIME_SYSTEM":"UTC","COUNTRY_CODE":"US","TLE_LINE2":"2 53435  53.2170 348.8286 0000929  93.1598 266.9500 15.08842967 45258","NORAD_CAT_ID":"53435","SEMIMAJOR_AXIS":"6917.871","EPOCH":"2023-05-27T19:38:56.027328","MEAN_ELEMENT_THEORY":"SGP4","SITE":"AFETR","FILE":"3918755","MEAN_MOTION":"15.08842967","REF_FRAME":"TEME","OBJECT_NAME":"STARLINK-4542","ECCENTRICITY":"0.00009290","CENTER_NAME":"EARTH","TLE_LINE1":"1 53435U 22097AZ  23147.81870402  .00001081  00000-0  85960-4 0  9999","RCS_SIZE":"LARGE"},{"GP_ID":"232607707","PERIOD":"95.437","ARG_OF_PERICENTER":"95.3548","COUNTRY_CODE":"US","TIME_SYSTEM":"UTC","PERIAPSIS":"538.948","OBJECT_ID":"2022-097BA","MEAN_MOTION_DDOT":"0.0000000000000","DECAY_DATE":null,"BSTAR":"-0.00000472770000","RA_OF_ASC_NODE":"348.4666","INCLINATION":"53.2185","MEAN_ANOMALY":"264.7573","REV_AT_EPOCH":"4480","MEAN_MOTION_DOT":"-0.00000363","LAUNCH_DATE":"2022-08-10","ELEMENT_SET_NO":"999","APOAPSIS":"540.506","CLASSIFICATION_TYPE":"U","EPHEMERIS_TYPE":"0","OBJECT_TYPE":"PAYLOAD","RCS_SIZE":"LARGE","REF_FRAME":"TEME","FILE":"3918579","MEAN_MOTION":"15.08846160","ECCENTRICITY":"0.00011260","CENTER_NAME":"EARTH","TLE_LINE1":"1 53436U 22097BA  23147.87389252 -.00000363  00000-0 -47277-5 0  9998","OBJECT_NAME":"STARLINK-4527","SITE":"AFETR","NORAD_CAT_ID":"53436","EPOCH":"2023-05-27T20:58:24.313728","SEMIMAJOR_AXIS":"6917.862","TLE_LINE2":"2 53436  53.2185 348.4666 0001126  95.3548 264.7573 15.08846160 44807","MEAN_ELEMENT_THEORY":"SGP4"},{"FILE":"3918755","MEAN_MOTION":"15.08837802","REF_FRAME":"TEME","OBJECT_NAME":"STARLINK-4526","TLE_LINE1":"1 53438U 22097BC  23147.87020786  .00000665  00000-0  59859-4 0  9995","CENTER_NAME":"EARTH","ECCENTRICITY":"0.00010720","RCS_SIZE":"LARGE","TLE_LINE2":"2 53438  53.2185 348.4422 0001072  83.1524 276.9590 15.08837802 45299","EPOCH":"2023-05-27T20:53:05.959104","SEMIMAJOR_AXIS":"6917.887","NORAD_CAT_ID":"53438","MEAN_ELEMENT_THEORY":"SGP4","SITE":"AFETR","OBJECT_ID":"2022-097BC","PERIAPSIS":"539.011","BSTAR":"0.00005985900000","DECAY_DATE":null,"MEAN_MOTION_DDOT":"0.0000000000000","PERIOD":"95.438","ARG_OF_PERICENTER":"83.1524","GP_ID":"232635830","TIME_SYSTEM":"UTC","COUNTRY_CODE":"US","EPHEMERIS_TYPE":"0","CLASSIFICATION_TYPE":"U","OBJECT_TYPE":"PAYLOAD","RA_OF_ASC_NODE":"348.4422","INCLINATION":"53.2185","APOAPSIS":"540.494","ELEMENT_SET_NO":"999","LAUNCH_DATE":"2022-08-10","MEAN_MOTION_DOT":"0.00000665","REV_AT_EPOCH":"4529","MEAN_ANOMALY":"276.9590"},{"OBJECT_TYPE":"PAYLOAD","CLASSIFICATION_TYPE":"U","EPHEMERIS_TYPE":"0","REV_AT_EPOCH":"4529","MEAN_ANOMALY":"282.7188","APOAPSIS":"540.513","MEAN_MOTION_DOT":"0.00000786","LAUNCH_DATE":"2022-08-10","ELEMENT_SET_NO":"999","INCLINATION":"53.2179","RA_OF_ASC_NODE":"348.4194","DECAY_DATE":null,"MEAN_MOTION_DDOT":"0.0000000000000","BSTAR":"0.00006744900000","PERIAPSIS":"538.974","OBJECT_ID":"2022-097BD","COUNTRY_CODE":"US","TIME_SYSTEM":"UTC","ARG_OF_PERICENTER":"77.3929","PERIOD":"95.438","GP_ID":"232635581","MEAN_ELEMENT_THEORY":"SGP4","SEMIMAJOR_AXIS":"6917.878","EPOCH":"2023-05-27T20:47:47.400576","NORAD_CAT_ID":"53439","TLE_LINE2":"2 53439  53.2179 348.4194 0001112  77.3929 282.7188 15.08840700 45297","SITE":"AFETR","TLE_LINE1":"1 53439U 22097BD  23147.86652084  .00000786  00000-0  67449-4 0  9995","ECCENTRICITY":"0.00011120","CENTER_NAME":"EARTH","OBJECT_NAME":"STARLINK-4519","REF_FRAME":"TEME","FILE":"3918755","MEAN_MOTION":"15.08840700","RCS_SIZE":"LARGE"}];
